[{"OBJECT_NAME":"ICEYE-X11","OBJECT_ID":"2021-059AR","EPOCH":"2026-03-09T23:58:26.261184","MEAN_MOTION":15.74026715,"ECCENTRICITY":0.00046944,"INCLINATION":97.6457,"RA_OF_ASC_NODE":256.9655,"ARG_OF_PERICENTER":333.4383,"MEAN_ANOMALY":26.664,"EPHEMERIS_TYPE":0,"CLASSIFICATION_TYPE":"U","NORAD_CAT_ID":48918,"ELEMENT_SET_NO":999,"REV_AT_EPOCH":26228,"BSTAR":0.00071987659,"MEAN_MOTION_DOT":0.00103309,"MEAN_MOTION_DDOT":0},{"OBJECT_NAME":"STARLINK-11482 [DTC]","OBJECT_ID":"2025-004K","EPOCH":"2026-03-09T09:08:50.941824","MEAN_MOTION":15.70901752,"ECCENTRICITY":0.00015873,"INCLINATION":43.0004,"RA_OF_ASC_NODE":72.2626,"ARG_OF_PERICENTER":281.1689,"MEAN_ANOMALY":78.9,"EPHEMERIS_TYPE":0,"CLASSIFICATION_TYPE":"U","NORAD_CAT_ID":62520,"ELEMENT_SET_NO":999,"REV_AT_EPOCH":6716,"BSTAR":0.0016939361,"MEAN_MOTION_DOT":0.00223428,"MEAN_MOTION_DDOT":0}]
